SENTINEL-3A             
1 41335U 16011A   26194.30487351  .00000048  00000+0  37974-4 0  9993
2 41335  98.6238 261.3119 0001367  90.7843 269.3494 14.26739453541781
SENTINEL-3B             
1 43437U 18039A   26194.20787993  .00000001  00000+0  18273-4 0  9994
2 43437  98.6237 261.3653 0001093 119.4777 240.6513 14.26735949427838
